[{"OBJECT_NAME":"STARLINK-31448","OBJECT_ID":"2024-080L","EPOCH":"2025-08-26T20:20:08.559456","MEAN_MOTION":15.27588635,"ECCENTRICITY":0.00014565,"INCLINATION":43.0003,"RA_OF_ASC_NODE":54.8431,"ARG_OF_PERICENTER":273.2855,"MEAN_ANOMALY":86.783,"EPHEMERIS_TYPE":0,"CLASSIFICATION_TYPE":"U","NORAD_CAT_ID":59611,"ELEMENT_SET_NO":999,"REV_AT_EPOCH":7477,"BSTAR":0.00012398584,"MEAN_MOTION_DOT":3.152e-5,"MEAN_MOTION_DDOT":0},{"OBJECT_NAME":"STARLINK-31748","OBJECT_ID":"2024-080M","EPOCH":"2025-08-26T21:26:32.654400","MEAN_MOTION":15.27582269,"ECCENTRICITY":0.00012816,"INCLINATION":43.0022,"RA_OF_ASC_NODE":54.3329,"ARG_OF_PERICENTER":270.6239,"MEAN_ANOMALY":89.4465,"EPHEMERIS_TYPE":0,"CLASSIFICATION_TYPE":"U","NORAD_CAT_ID":59612,"ELEMENT_SET_NO":999,"REV_AT_EPOCH":7595,"BSTAR":7.845364e-5,"MEAN_MOTION_DOT":1.897e-5,"MEAN_MOTION_DDOT":0},{"OBJECT_NAME":"STARLINK-31746","OBJECT_ID":"2024-080N","EPOCH":"2025-08-26T21:10:33.380256","MEAN_MOTION":15.27599739,"ECCENTRICITY":0.00013414,"INCLINATION":43.0021,"RA_OF_ASC_NODE":62.0022,"ARG_OF_PERICENTER":291.9579,"MEAN_ANOMALY":68.113,"EPHEMERIS_TYPE":0,"CLASSIFICATION_TYPE":"U","NORAD_CAT_ID":59613,"ELEMENT_SET_NO":999,"REV_AT_EPOCH":7469,"BSTAR":-0.0002351231,"MEAN_MOTION_DOT":-6.73e-5,"MEAN_MOTION_DDOT":0},{"OBJECT_NAME":"STARLINK-31762","OBJECT_ID":"2024-080P","EPOCH":"2025-08-26T20:30:33.489792","MEAN_MOTION":15.2757689,"ECCENTRICITY":0.00010896,"INCLINATION":43.0019,"RA_OF_ASC_NODE":58.36,"ARG_OF_PERICENTER":280.6147,"MEAN_ANOMALY":79.4581,"EPHEMERIS_TYPE":0,"CLASSIFICATION_TYPE":"U","NORAD_CAT_ID":59614,"ELEMENT_SET_NO":999,"REV_AT_EPOCH":7473,"BSTAR":1.6113014e-5,"MEAN_MOTION_DOT":1.81e-6,"MEAN_MOTION_DDOT":0},{"OBJECT_NAME":"STARLINK-31761","OBJECT_ID":"2024-080Q","EPOCH":"2025-08-26T05:31:32.910528","MEAN_MOTION":15.27568143,"ECCENTRICITY":7.748e-5,"INCLINATION":43.0034,"RA_OF_ASC_NODE":62.2223,"ARG_OF_PERICENTER":279.02,"MEAN_ANOMALY":81.0564,"EPHEMERIS_TYPE":0,"CLASSIFICATION_TYPE":"U","NORAD_CAT_ID":59615,"ELEMENT_SET_NO":999,"REV_AT_EPOCH":7463,"BSTAR":7.060728e-6,"MEAN_MOTION_DOT":-6.8e-7,"MEAN_MOTION_DDOT":0},{"OBJECT_NAME":"STARLINK-31768","OBJECT_ID":"2024-080R","EPOCH":"2025-08-26T20:26:51.076320","MEAN_MOTION":15.27575525,"ECCENTRICITY":0.0001339,"INCLINATION":43.0028,"RA_OF_ASC_NODE":58.3377,"ARG_OF_PERICENTER":277.4964,"MEAN_ANOMALY":82.5736,"EPHEMERIS_TYPE":0,"CLASSIFICATION_TYPE":"U","NORAD_CAT_ID":59616,"ELEMENT_SET_NO":999,"REV_AT_EPOCH":7473,"BSTAR":9.8919444e-5,"MEAN_MOTION_DOT":2.46e-5,"MEAN_MOTION_DDOT":0},{"OBJECT_NAME":"STARLINK-31769","OBJECT_ID":"2024-080S","EPOCH":"2025-08-26T19:18:35.847648","MEAN_MOTION":15.27583134,"ECCENTRICITY":0.0001336,"INCLINATION":42.9998,"RA_OF_ASC_NODE":58.8416,"ARG_OF_PERICENTER":268.6432,"MEAN_ANOMALY":91.4266,"EPHEMERIS_TYPE":0,"CLASSIFICATION_TYPE":"U","NORAD_CAT_ID":59617,"ELEMENT_SET_NO":999,"REV_AT_EPOCH":7472,"BSTAR":4.6069637e-5,"MEAN_MOTION_DOT":1.006e-5,"MEAN_MOTION_DDOT":0},{"OBJECT_NAME":"STARLINK-31784","OBJECT_ID":"2024-080T","EPOCH":"2025-08-26T20:50:12.824736","MEAN_MOTION":15.27580789,"ECCENTRICITY":0.00011203,"INCLINATION":43.003,"RA_OF_ASC_NODE":61.9166,"ARG_OF_PERICENTER":276.9583,"MEAN_ANOMALY":83.1141,"EPHEMERIS_TYPE":0,"CLASSIFICATION_TYPE":"U","NORAD_CAT_ID":59618,"ELEMENT_SET_NO":999,"REV_AT_EPOCH":7469,"BSTAR":4.7023837e-5,"MEAN_MOTION_DOT":1.032e-5,"MEAN_MOTION_DDOT":0},{"OBJECT_NAME":"STARLINK-31777","OBJECT_ID":"2024-080U","EPOCH":"2025-08-26T20:55:46.156800","MEAN_MOTION":15.27569515,"ECCENTRICITY":9.484e-5,"INCLINATION":43.0034,"RA_OF_ASC_NODE":61.9496,"ARG_OF_PERICENTER":277.7357,"MEAN_ANOMALY":82.3387,"EPHEMERIS_TYPE":0,"CLASSIFICATION_TYPE":"U","NORAD_CAT_ID":59619,"ELEMENT_SET_NO":999,"REV_AT_EPOCH":7469,"BSTAR":6.6581029e-5,"MEAN_MOTION_DOT":1.57e-5,"MEAN_MOTION_DDOT":0},{"OBJECT_NAME":"STARLINK-31771","OBJECT_ID":"2024-080V","EPOCH":"2025-08-26T20:17:14.710560","MEAN_MOTION":15.30101659,"ECCENTRICITY":0.00045732,"INCLINATION":42.9997,"RA_OF_ASC_NODE":58.2542,"ARG_OF_PERICENTER":280.5712,"MEAN_ANOMALY":79.4625,"EPHEMERIS_TYPE":0,"CLASSIFICATION_TYPE":"U","NORAD_CAT_ID":59620,"ELEMENT_SET_NO":999,"REV_AT_EPOCH":7473,"BSTAR":0.0033707874,"MEAN_MOTION_DOT":0.00101364,"MEAN_MOTION_DDOT":0},{"OBJECT_NAME":"STARLINK-31758","OBJECT_ID":"2024-080W","EPOCH":"2025-08-26T21:09:54.519264","MEAN_MOTION":15.27572091,"ECCENTRICITY":5.238e-5,"INCLINATION":42.9985,"RA_OF_ASC_NODE":54.2513,"ARG_OF_PERICENTER":328.6046,"MEAN_ANOMALY":31.4774,"EPHEMERIS_TYPE":0,"CLASSIFICATION_TYPE":"U","NORAD_CAT_ID":59621,"ELEMENT_SET_NO":999,"REV_AT_EPOCH":7478,"BSTAR":9.363854e-6,"MEAN_MOTION_DOT":-4.0e-8,"MEAN_MOTION_DDOT":0},{"OBJECT_NAME":"STARLINK-31774","OBJECT_ID":"2024-080X","EPOCH":"2025-08-26T20:29:23.606016","MEAN_MOTION":15.27583073,"ECCENTRICITY":0.00012348,"INCLINATION":43.0005,"RA_OF_ASC_NODE":54.8913,"ARG_OF_PERICENTER":277.4478,"MEAN_ANOMALY":82.6234,"EPHEMERIS_TYPE":0,"CLASSIFICATION_TYPE":"U","NORAD_CAT_ID":59622,"ELEMENT_SET_NO":999,"REV_AT_EPOCH":7477,"BSTAR":4.9766743e-5,"MEAN_MOTION_DOT":1.108e-5,"MEAN_MOTION_DDOT":0},{"OBJECT_NAME":"STARLINK-31763","OBJECT_ID":"2024-080Y","EPOCH":"2025-08-26T20:58:18.888672","MEAN_MOTION":15.2757623,"ECCENTRICITY":0.00011199,"INCLINATION":43.0039,"RA_OF_ASC_NODE":58.5037,"ARG_OF_PERICENTER":278.2398,"MEAN_ANOMALY":81.8327,"EPHEMERIS_TYPE":0,"CLASSIFICATION_TYPE":"U","NORAD_CAT_ID":59623,"ELEMENT_SET_NO":999,"REV_AT_EPOCH":7473,"BSTAR":8.484472e-6,"MEAN_MOTION_DOT":-2.9e-7,"MEAN_MOTION_DDOT":0},{"OBJECT_NAME":"STARLINK-31749","OBJECT_ID":"2024-082A","EPOCH":"2025-08-26T11:55:33.159648","MEAN_MOTION":15.27582678,"ECCENTRICITY":6.56e-5,"INCLINATION":43.0051,"RA_OF_ASC_NODE":161.8242,"ARG_OF_PERICENTER":303.8526,"MEAN_ANOMALY":56.2263,"EPHEMERIS_TYPE":0,"CLASSIFICATION_TYPE":"U","NORAD_CAT_ID":59631,"ELEMENT_SET_NO":999,"REV_AT_EPOCH":7516,"BSTAR":8.2396642e-5,"MEAN_MOTION_DOT":2.006e-5,"MEAN_MOTION_DDOT":0},{"OBJECT_NAME":"STARLINK-31781","OBJECT_ID":"2024-082B","EPOCH":"2025-08-26T11:02:58.379424","MEAN_MOTION":15.27573401,"ECCENTRICITY":9.136e-5,"INCLINATION":43.0014,"RA_OF_ASC_NODE":148.2506,"ARG_OF_PERICENTER":276.247,"MEAN_ANOMALY":83.8278,"EPHEMERIS_TYPE":0,"CLASSIFICATION_TYPE":"U","NORAD_CAT_ID":59632,"ELEMENT_SET_NO":999,"REV_AT_EPOCH":7515,"BSTAR":2.5044674e-5,"MEAN_MOTION_DOT":4.27e-6,"MEAN_MOTION_DDOT":0},{"OBJECT_NAME":"STARLINK-31541","OBJECT_ID":"2024-082C","EPOCH":"2025-08-26T02:46:48.922464","MEAN_MOTION":15.27581298,"ECCENTRICITY":7.007e-5,"INCLINATION":42.9989,"RA_OF_ASC_NODE":157.185,"ARG_OF_PERICENTER":274.3616,"MEAN_ANOMALY":85.7155,"EPHEMERIS_TYPE":0,"CLASSIFICATION_TYPE":"U","NORAD_CAT_ID":59633,"ELEMENT_SET_NO":999,"REV_AT_EPOCH":7517,"BSTAR":4.436159e-6,"MEAN_MOTION_DOT":-1.4e-6,"MEAN_MOTION_DDOT":0}]
