STARLINK-31448          
1 59611U 24080L   25238.84732129  .00003152  00000+0  12399-3 0  9999
2 59611  43.0003  54.8431 0001456 273.2855  86.7830 15.27588635 74774
STARLINK-31748          
1 59612U 24080M   25238.89343350  .00001897  00000+0  78454-4 0  9998
2 59612  43.0022  54.3329 0001281 270.6239  89.4465 15.27582269 75952
STARLINK-31746          
1 59613U 24080N   25238.88233079 -.00006730  00000+0 -23512-3 0  9991
2 59613  43.0021  62.0022 0001341 291.9579  68.1130 15.27599739 74691
STARLINK-31762          
1 59614U 24080P   25238.85455428  .00000181  00000+0  16113-4 0  9995
2 59614  43.0019  58.3600 0001089 280.6147  79.4581 15.27576890 74737
STARLINK-31761          
1 59615U 24080Q   25238.23024202 -.00000068  00000+0  70607-5 0  9994
2 59615  43.0034  62.2223 0000774 279.0200  81.0564 15.27568143 74633
STARLINK-31768          
1 59616U 24080R   25238.85198005  .00002460  00000+0  98919-4 0  9998
2 59616  43.0028  58.3377 0001339 277.4964  82.5736 15.27575525 74730
STARLINK-31769          
1 59617U 24080S   25238.80458157  .00001006  00000+0  46070-4 0  9997
2 59617  42.9998  58.8416 0001336 268.6432  91.4266 15.27583134 74724
STARLINK-31784          
1 59618U 24080T   25238.86820399  .00001032  00000+0  47024-4 0  9994
2 59618  43.0030  61.9166 0001120 276.9583  83.1141 15.27580789 74690
STARLINK-31777          
1 59619U 24080U   25238.87206200  .00001570  00000+0  66581-4 0  9991
2 59619  43.0034  61.9496 0000948 277.7357  82.3387 15.27569515 74693
STARLINK-31771          
1 59620U 24080V   25238.84530915  .00101364  00000+0  33708-2 0  9998
2 59620  42.9997  58.2542 0004573 280.5712  79.4625 15.30101659 74739
STARLINK-31758          
1 59621U 24080W   25238.88188101 -.00000004  00000+0  93639-5 0  9991
2 59621  42.9985  54.2513 0000523 328.6046  31.4774 15.27572091 74782
STARLINK-31774          
1 59622U 24080X   25238.85374544  .00001108  00000+0  49767-4 0  9994
2 59622  43.0005  54.8913 0001234 277.4478  82.6234 15.27583073 74778
STARLINK-31763          
1 59623U 24080Y   25238.87382973 -.00000029  00000+0  84845-5 0  9991
2 59623  43.0039  58.5037 0001119 278.2398  81.8327 15.27576230 74733
STARLINK-31749          
1 59631U 24082A   25238.49691157  .00002006  00000+0  82397-4 0  9992
2 59631  43.0051 161.8242 0000656 303.8526  56.2263 15.27582678 75161
STARLINK-31781          
1 59632U 24082B   25238.46039791  .00000427  00000+0  25045-4 0  9992
2 59632  43.0014 148.2506 0000913 276.2470  83.8278 15.27573401 75155
STARLINK-31541          
1 59633U 24082C   25238.11584401 -.00000140  00000+0  44362-5 0  9995
2 59633  42.9989 157.1850 0000700 274.3616  85.7155 15.27581298 75171
